0 DELTA 1 DEB
1 19512U 73086HF  13283.19164534  .00000005  00000-0  38395-3 0  8874
2 19512 101.8645 271.1684 0029136 290.0699 132.7001 12.34951541145436
0 DELTA 1 DEB
1 19512U 73086HF  13285.48074719 -.00000005  00000-0  30473-3 0  8884
2 19512 101.8644 273.3779 0029115 285.8113 229.6670 12.34952001145715
0 DELTA 1 DEB
1 19512U 73086HF  13288.47807632 -.00000014  00000-0  23625-3 0  8896
2 19512 101.8655 276.2711 0029035 280.1986 235.3349 12.34952479146089
0 DELTA 1 DEB
1 19512U 73086HF  13290.81886872 -.00000025  00000-0  14467-3 0  8908
2 19512 101.8650 278.5300 0029032 275.6985 202.2608 12.34952534146373
0 DELTA 1 DEB
1 19512U 73086HF  13292.44791736 -.00000019  00000-0  19795-3 0  8916
2 19512 101.8653 280.1023 0029007 272.6371 244.7758 12.34952644146576
0 DELTA 1 DEB
1 19512U 73086HF  13294.47291591  .00000002  00000-0  36549-3 0  8923
2 19512 101.8655 282.0569 0028996 268.8442 247.6156 12.34952586146823
